SAUDISAT 1C             
1 27607U 02058C   20154.86500278 -.00000047  00000-0  13907-4 0  9991
2 27607  64.5565  58.9714 0049751 181.1973 178.9019 14.75637193938578
SAUDISAT 2              
1 28371U 04025F   20154.85147098  .00000103  00000-0  35008-4 0  9990
2 28371  98.2770 103.8926 0024486 237.5068 122.3754 14.54381996845056
SAUDISAT 3              
1 31118U 07012B   20154.85475882  .00000009  00000-0  95010-5 0  9992
2 31118  97.8686 113.6124 0016311  53.0484 307.2213 14.69164097703773
PISAT                   
1 41784U 16059B   20154.79889416  .00000084  00000-0  25214-4 0  9999
2 41784  98.0194 211.6899 0031855   2.2864 357.8478 14.63515456196768
FLYING LAPTOP           
1 42831U 17042G   20154.83409046  .00000159  00000-0  21320-4 0  9995
2 42831  97.5234  37.4312 0013581 340.3747  19.6947 14.91125832157113
